      2.10          N: GNSS NAV DATA                        RINEX VERSION / TYPE
fic2rin                                 08/08/2021 00:17:19 PGM / RUN BY / DATE
                                                            END OF HEADER
10 21  8  7  8  0  0.0-1.775235868990e-04-7.617018127348e-12 0.000000000000e+00
    9.900000000000e+01-1.417812500000e+02 3.908734243042e-09 2.637279923969e+00
   -7.271766662598e-06 6.785979261622e-03 8.184462785721e-06 5.153683694839e+03
    5.472000000000e+05-4.656612873077e-08 2.626286059493e+00-1.024454832077e-07
    9.703264936047e-01 2.263750000000e+02-2.578154616637e+00-7.739965257763e-09
   -1.292910997790e-10 1.000000000000e+00 2.169000000000e+03 0.000000000000e+00
    3.400000000000e+00 0.000000000000e+00 2.328306436539e-09 9.900000000000e+01
    5.400000000000e+05 4.000000000000e+00
 8 21  8  7  8  0  0.0-3.169011324644e-05-1.477928890381e-12 0.000000000000e+00
    7.900000000000e+01 1.207500000000e+02 4.342680890090e-09 6.360484178096e-01
    6.357207894325e-06 6.388297770172e-03 7.493421435356e-06 5.153638500214e+03
    5.472000000000e+05 4.842877388000e-08 5.156389383629e-01 2.793967723846e-08
    9.669737135822e-01 2.327812500000e+02 5.865237224959e-02-8.014619555360e-09
    9.286101089098e-12 1.000000000000e+00 2.169000000000e+03 0.000000000000e+00
    3.400000000000e+00 0.000000000000e+00 5.122274160385e-09 7.900000000000e+01
    5.400000000000e+05 4.000000000000e+00
30 21  8  7  8  0  0.0-4.595005884767e-04-4.206412995700e-12 0.000000000000e+00
    9.300000000000e+01-4.062500000000e+00 5.574875073067e-09-2.413207791471e+00
   -4.190951585770e-07 5.369747290388e-03 4.876405000687e-06 5.153656957626e+03
    5.472000000000e+05 2.421438694000e-08-1.536575771954e+00-1.471489667892e-07
    9.361592123889e-01 2.767500000000e+02-2.734442141497e+00-8.456423672561e-09
    4.678766317969e-11 1.000000000000e+00 2.169000000000e+03 0.000000000000e+00
    3.400000000000e+00 0.000000000000e+00 3.725290298462e-09 9.300000000000e+01
    5.400000000000e+05 4.000000000000e+00
27 21  8  7  8  0  0.0-1.746295019984e-04-5.684341886081e-12 0.000000000000e+00
    9.900000000000e+01 1.306875000000e+02 4.165173496195e-09 5.176328401141e-01
    6.973743438721e-06 9.432533988729e-03 7.590278983116e-06 5.153694787979e+03
    5.472000000000e+05 1.862645149231e-09 5.334730171782e-01 8.195638656616e-08
    9.755798353532e-01 2.373750000000e+02 6.363670135719e-01-8.041406385425e-09
    2.642967233051e-11 1.000000000000e+00 2.169000000000e+03 0.000000000000e+00
    3.400000000000e+00 0.000000000000e+00 1.862645149231e-09 9.900000000000e+01
    5.400000000000e+05 4.000000000000e+00
15 21  8  7  8  0  0.0-1.301141455770e-04 2.728484105319e-12 0.000000000000e+00
    8.600000000000e+01-7.968750000000e+00 5.085211819484e-09-3.276974884529e-01
   -2.682209014893e-07 1.344944827724e-02 1.015886664391e-05 5.153658372879e+03
    5.472000000000e+05-2.607703208923e-08-2.726063570781e+00 2.142041921616e-07
    9.295894550292e-01 1.692812500000e+02 1.007614132270e+00-8.394635384545e-09
    6.535986535788e-10 1.000000000000e+00 2.169000000000e+03 0.000000000000e+00
    2.400000000000e+00 0.000000000000e+00-1.071020960808e-08 8.600000000000e+01
    5.400000000000e+05 4.000000000000e+00
13 21  8  7  8  0  0.0 1.680115237832e-04 5.115907697473e-12 0.000000000000e+00
    9.500000000000e+01 1.181250000000e+01 4.346609625166e-09 2.061261375239e-02
    5.960464477539e-07 5.226233624853e-03 8.925795555115e-06 5.153680509567e+03
    5.472000000000e+05-2.235174179077e-08-2.475390018273e+00 1.117587089539e-07
    9.683918063886e-01 2.141875000000e+02 9.556966413326e-01-7.871756461682e-09
    6.700279093519e-10 1.000000000000e+00 2.169000000000e+03 0.000000000000e+00
    2.400000000000e+00 0.000000000000e+00-1.117587089539e-08 9.500000000000e+01
    5.400000000000e+05 4.000000000000e+00
14 21  8  7  8  0  0.0 2.941815182567e-05-8.753886504564e-12 0.000000000000e+00
    5.000000000000e+01 1.975000000000e+01 4.537689012961e-09-2.993162442716e+00
    1.132488250732e-06 1.011828542687e-03 1.022964715958e-05 5.153651496887e+03
    5.472000000000e+05-2.421438694000e-08-4.695030210968e-01 2.235174179077e-08
    9.562781117703e-01 1.820000000000e+02 3.025814344147e+00-7.835326372794e-09
   -4.668051585943e-10 1.000000000000e+00 2.169000000000e+03 0.000000000000e+00
    2.400000000000e+00 0.000000000000e+00-7.916241884232e-09 5.620000000000e+02
    5.400000000000e+05 4.000000000000e+00
32 21  8  7  8  0  0.0 9.404961019754e-06-2.614797267597e-12 0.000000000000e+00
    8.500000000000e+01-1.290625000000e+01 4.399826127562e-09 1.278999825237e+00
   -7.208436727524e-07 5.052647204138e-03 9.829178452492e-06 5.153704524994e+03
    5.472000000000e+05-5.401670932770e-08-2.614786265281e+00 6.705522537231e-08
    9.577425615248e-01 1.849375000000e+02-2.363540195393e+00-7.873185092618e-09
    6.135969873489e-10 1.000000000000e+00 2.169000000000e+03 0.000000000000e+00
    2.400000000000e+00 0.000000000000e+00 4.656612873077e-10 8.500000000000e+01
    5.400000000000e+05 4.000000000000e+00
26 21  8  7  8  0  0.0 1.197634264827e-04 4.433786671143e-12 0.000000000000e+00
    6.600000000000e+01 7.343750000000e+00 5.028423739747e-09 2.399597328312e+00
    4.582107067108e-07 5.971470382065e-03 1.017190515995e-05 5.153602863312e+03
    5.472000000000e+05-1.993030309677e-07-5.589854161006e-01-2.048909664154e-08
    9.410096167591e-01 1.729062500000e+02 2.985618013260e-01-8.025334287386e-09
   -5.343079703573e-10 1.000000000000e+00 2.169000000000e+03 0.000000000000e+00
    2.400000000000e+00 0.000000000000e+00 6.984919309616e-09 6.600000000000e+01
    5.400000000000e+05 4.000000000000e+00
24 21  8  7  8  0  0.0 2.007498405874e-04 1.193711796077e-11 0.000000000000e+00
    3.500000000000e+01 1.343750000000e+00 5.599518956726e-09-1.296079196318e+00
    1.639127731323e-07 1.131770445500e-02 4.393979907036e-06 5.153705894470e+03
    5.472000000000e+05 2.905726432800e-07-1.632189579933e+00-3.725290298462e-09
    9.344031430815e-01 2.765312500000e+02 7.470860212572e-01-8.428208211559e-09
    1.335769925893e-10 1.000000000000e+00 2.169000000000e+03 0.000000000000e+00
    2.400000000000e+00 0.000000000000e+00 2.793967723846e-09 3.500000000000e+01
    5.400000000000e+05 4.000000000000e+00
22 21  8  7  8  0  0.0-5.443654954433e-04 9.436007530894e-12 0.000000000000e+00
    7.200000000000e+01-1.322187500000e+02 4.795914054785e-09-5.129863972454e-01
   -6.807968020439e-06 6.838911096565e-03 6.519258022308e-06 5.153772670746e+03
    5.472000000000e+05-1.881271600723e-07 2.527161281771e+00-1.210719347000e-07
    9.360661839653e-01 2.433750000000e+02-9.094875532929e-01-8.278559120931e-09
   -1.610781381224e-10 1.000000000000e+00 2.169000000000e+03 0.000000000000e+00
    2.400000000000e+00 0.000000000000e+00-1.769512891769e-08 7.200000000000e+01
    5.400000000000e+05 4.000000000000e+00
21 21  8  7  8  0  0.0 1.358222216368e-04 2.160049916711e-12 0.000000000000e+00
    5.300000000000e+01 9.875000000000e+00 5.009137222100e-09 6.994091948232e-01
   -1.434236764908e-07 2.405440120492e-02 1.007691025734e-06 5.153651521683e+03
    5.472000000000e+05-3.911554813385e-08 1.506150744904e+00-3.986060619354e-07
    9.575575214057e-01 3.630312500000e+02-1.102920859115e+00-8.885727269064e-09
   -1.528635102359e-10 1.000000000000e+00 2.169000000000e+03 0.000000000000e+00
    2.400000000000e+00 0.000000000000e+00-1.024454832077e-08 5.300000000000e+01
    5.400000000000e+05 4.000000000000e+00
20 21  8  7  8  0  0.0 5.197855643928e-04-2.273736754432e-13 0.000000000000e+00
    6.800000000000e+01-1.249375000000e+02 4.828415408597e-09-4.954558373586e-01
   -6.580725312233e-06 5.500692524947e-03 6.727874279022e-06 5.153635251999e+03
    5.472000000000e+05 1.434236764908e-07 2.480910880925e+00-1.080334186554e-07
    9.393434627857e-01 2.398437500000e+02 2.969387220977e+00-8.302488689122e-09
   -2.367955777720e-10 1.000000000000e+00 2.169000000000e+03 0.000000000000e+00
    2.400000000000e+00 0.000000000000e+00-8.381903171539e-09 6.800000000000e+01
    5.400000000000e+05 4.000000000000e+00
23 21  8  7  8  0  0.0 7.412536069751e-05-5.115907697473e-12 0.000000000000e+00
    1.590000000000e+02-1.430312500000e+02 4.057669018202e-09-2.053789563573e+00
   -7.275491952896e-06 1.496574841440e-03 8.312985301018e-06 5.153669452667e+03
    5.472000000000e+05 1.490116119385e-08 2.602432946144e+00 3.539025783539e-08
    9.653176508177e-01 2.211875000000e+02 2.633071376369e+00-7.863184676061e-09
   -1.085759511956e-10 1.000000000000e+00 2.169000000000e+03 0.000000000000e+00
    2.400000000000e+00 0.000000000000e+00-8.381903171539e-09 1.590000000000e+02
    5.400000000000e+05 4.000000000000e+00
25 21  8  7  8  0  0.0 1.869304105639e-04 6.593836587854e-12 0.000000000000e+00
    8.900000000000e+01 2.446875000000e+01 4.405540651309e-09 3.070727444764e+00
    1.110136508942e-06 9.831384057179e-03 1.041963696480e-05 5.153592884064e+03
    5.472000000000e+05 2.048909664154e-08-5.156043739975e-01-2.402812242508e-07
    9.601507148627e-01 1.754375000000e+02 9.710868291843e-01-7.639246776720e-09
   -5.560945921433e-10 1.000000000000e+00 2.169000000000e+03 0.000000000000e+00
    2.400000000000e+00 0.000000000000e+00 5.587935447693e-09 8.900000000000e+01
    5.400000000000e+05 4.000000000000e+00
18 21  8  7  8  0  0.0 3.349520266056e-04-3.296918293927e-12 0.000000000000e+00
    1.440000000000e+02-1.737500000000e+01 4.546260798582e-09-1.318742364787e+00
   -8.847564458847e-07 1.769272610545e-03 1.247972249985e-07 5.153649671555e+03
    5.472000000000e+05-1.043081283569e-07 1.602556130541e+00-9.313225746155e-09
    9.685249875247e-01 3.825937500000e+02 2.899568760757e+00-8.374991709164e-09
   -1.189335254873e-10 1.000000000000e+00 2.169000000000e+03 0.000000000000e+00
    2.400000000000e+00 0.000000000000e+00-8.381903171539e-09 9.120000000000e+02
    5.400000000000e+05 4.000000000000e+00
